H1 CPF 01  gfz 2021 04 05 00  5951 tandemx   
H2 1003001  6202 36605    2021 04 05 00 59 42 2021 04 10 00 00 42   120 1 1  0 0 0
H9
10 0 59311  46062.000000  0     605914.606  -1408804.214   6704961.555
10 0 59311  46182.000000  0     379718.782  -2272597.746   6481210.403
10 0 59311  46302.000000  0     132164.560  -3092585.589   6143553.808
10 0 59311  46422.000000  0    -131535.014  -3854115.471   5697894.202
10 0 59311  46542.000000  0    -405635.662  -4543638.485   5152028.465
10 0 59311  46662.000000  0    -683981.749  -5148954.280   4515519.875
10 0 59311  46782.000000  0    -960139.582  -5659436.954   3799537.671
10 0 59311  46902.000000  0   -1227540.562  -6066231.817   3016662.868
10 0 59311  47022.000000  0   -1479630.315  -6362417.961   2180667.339
10 0 59311  47142.000000  0   -1710020.860  -6543135.563   1306270.012
10 0 59311  47262.000000  0   -1912643.132  -6605672.574    408871.483
10 0 59311  47382.000000  0   -2081892.991  -6549507.287   -495725.615
10 0 59311  47502.000000  0   -2212768.518  -6376306.955  -1391603.708
10 0 59311  47622.000000  0   -2300995.440  -6089882.543  -2263018.703
10 0 59311  47742.000000  0   -2343137.611  -5696100.951  -3094683.953
10 0 59311  47862.000000  0   -2336689.369  -5202756.337  -3872043.587
10 0 59311  47982.000000  0   -2280147.405  -4619404.624  -4581528.116
10 0 59311  48102.000000  0   -2173061.075  -3957167.457  -5210787.459
10 0 59311  48222.000000  0   -2016060.817  -3228511.198  -5748898.810
10 0 59311  48342.000000  0   -1810864.347  -2447005.640  -6186547.381
10 0 59311  48462.000000  0   -1560260.013  -1627066.707  -6516177.112
10 0 59311  48582.000000  0   -1268068.596   -783689.560  -6732109.117
10 0 59311  48702.000000  0    -939085.353     67822.877  -6830628.890
10 0 59311  48822.000000  0    -579002.061    912131.784  -6810042.638
10 0 59311  48942.000000  0    -194310.095   1734131.458  -6670703.019
10 0 59311  49062.000000  0     207812.570   2519212.244  -6415003.865
10 0 59311  49182.000000  0     619631.263   3253515.335  -6047345.716
10 0 59311  49302.000000  0    1032999.996   3924175.682  -5574067.845
10 0 59311  49422.000000  0    1439517.889   4519547.220  -5003348.955
10 0 59311  49542.000000  0    1830695.964   5029409.650  -4345078.173
10 0 59311  49662.000000  0    2198131.244   5445151.898  -3610693.724
10 0 59311  49782.000000  0    2533683.996   5759926.711  -2812992.581
10 0 59311  49902.000000  0    2829655.226   5968774.634  -1965913.482
10 0 59311  50022.000000  0    3078960.247   6068713.017  -1084295.037
10 0 59311  50142.000000  0    3275293.051   6058786.481   -183612.951
10 0 59311  50262.000000  0    3413276.835   5940076.363    720297.506
10 0 59311  50382.000000  0    3488597.448   5715669.093   1611526.936
10 0 59311  50502.000000  0    3498116.638   5390585.154   2474379.796
10 0 59311  50622.000000  0    3439960.801   4971669.495   3293659.691
10 0 59311  50742.000000  0    3313584.201   4467443.850   4054944.504
10 0 59311  50862.000000  0    3119805.239   3887928.721   4744844.698
10 0 59311  50982.000000  0    2860811.002   3244436.890   5351242.901
10 0 59311  51102.000000  0    2540134.017   2549344.205   5863503.314
10 0 59311  51222.000000  0    2162604.594   1815846.528   6272653.489
10 0 59311  51342.000000  0    1734276.257   1057704.414   6571537.147
10 0 59311  51462.000000  0    1262325.626    288981.830   6754932.366
10 0 59311  51582.000000  0     754930.465   -476213.926   6819636.808
10 0 59311  51702.000000  0     221127.589  -1223990.756   6764521.754
10 0 59311  51822.000000  0    -329348.419  -1940924.231   6590550.438
10 0 59311  51942.000000  0    -886242.809  -2614298.631   6300761.648
10 0 59311  52062.000000  0   -1438970.455  -3232332.820   5900218.247
10 0 59311  52182.000000  0   -1976814.257  -3784387.279   5395924.046
10 0 59311  52302.000000  0   -2489132.954  -4261151.296   4796709.546
10 0 59311  52422.000000  0   -2965574.469  -4654806.698   4113084.027
10 0 59311  52542.000000  0   -3396288.372  -4959162.903   3357054.560
10 0 59311  52662.000000  0   -3772131.321  -5169760.155   2541915.568
10 0 59311  52782.000000  0   -4084861.819  -5283939.174   1682014.070
10 0 59311  52902.000000  0   -4327321.123  -5300875.311    792493.091
10 0 59311  53022.000000  0   -4493594.464  -5221575.227   -110981.557
10 0 59311  53142.000000  0   -4579148.774  -5048836.752  -1012505.346
10 0 59311  53262.000000  0   -4580942.707  -4787172.119  -1896224.771
10 0 59311  53382.000000  0   -4497505.469  -4442695.787  -2746624.947
10 0 59311  53502.000000  0   -4328983.120  -4022980.895  -3548807.638
10 0 59311  53622.000000  0   -4077151.967  -3536889.552  -4288754.136
10 0 59311  53742.000000  0   -3745399.751  -2994381.517  -4953568.624
10 0 59311  53862.000000  0   -3338675.299  -2406305.482  -5531697.841
10 0 59311  53982.000000  0   -2863408.544  -1784178.846  -6013123.172
10 0 59311  54102.000000  0   -2327403.689  -1139960.638  -6389524.242
10 0 59311  54222.000000  0   -1739706.435   -485821.764  -6654411.581
10 0 59311  54342.000000  0   -1110449.206    166082.258  -6803226.250
10 0 59311  54462.000000  0    -450678.704    803831.578  -6833408.801
10 0 59311  54582.000000  0     227834.018   1415954.369  -6744438.718
10 0 59311  54702.000000  0     912797.271   1991627.233  -6537842.850
10 0 59311  54822.000000  0    1591616.640   2520863.039  -6217174.211
10 0 59311  54942.000000  0    2251621.914   2994682.445  -5787957.153
10 0 59311  55062.000000  0    2880300.092   3405266.481  -5257601.203
10 0 59311  55182.000000  0    3465530.184   3746087.346  -4635284.520
10 0 59311  55302.000000  0    3995817.943   4012017.313  -3931806.962
10 0 59311  55422.000000  0    4460525.289   4199411.492  -3159412.373
10 0 59311  55542.000000  0    4850089.041   4306162.261  -2331581.722
10 0 59311  55662.000000  0    5156222.728   4331723.393  -1462801.076
10 0 59311  55782.000000  0    5372098.051   4277103.379   -568307.461
10 0 59311  55902.000000  0    5492499.045   4144827.212    336182.396
10 0 59311  56022.000000  0    5513946.439   3938868.031   1234754.181
10 0 59311  56142.000000  0    5434788.799   3664548.205   2111584.440
10 0 59311  56262.000000  0    5255256.326   3328412.622   2951228.430
10 0 59311  56382.000000  0    4977475.299   2938078.565   3738900.712
10 0 59311  56502.000000  0    4605443.808   2502064.749   4460741.948
10 0 59311  56622.000000  0    4144970.109   2029604.286   5104064.116
10 0 59311  56742.000000  0    3603576.707   1530449.433   5657575.020
10 0 59311  56862.000000  0    2990368.259   1014668.135   6111574.307
10 0 59311  56982.000000  0    2315871.163    492439.019   6458116.553
10 0 59311  57102.000000  0    1591848.675    -26148.512   6691143.135
10 0 59311  57222.000000  0     831093.409   -531288.038   6806584.248
10 0 59311  57342.000000  0      47198.879  -1013641.605   6802426.073
10 0 59311  57462.000000  0    -745683.833  -1464511.730   6678742.764
10 0 59311  57582.000000  0   -1533101.091  -1875998.303   6437694.302
10 0 59311  57702.000000  0   -2300558.425  -2241136.601   6083489.703
10 0 59311  57822.000000  0   -3033785.442  -2554015.139   5622319.849
10 0 59311  57942.000000  0   -3719004.592  -2809874.386   5062257.711
10 0 59311  58062.000000  0   -4343195.341  -3005181.514   4413121.293
10 0 59311  58182.000000  0   -4894346.804  -3137679.528   3686305.253
10 0 59311  58302.000000  0   -5361695.024  -3206409.970   2894583.807
10 0 59311  58422.000000  0   -5735940.734  -3211709.656   2051887.615
10 0 59311  58542.000000  0   -6009442.159  -3155181.187   1173055.659
10 0 59311  58662.000000  0   -6176375.884  -3039635.979    273567.289
10 0 59311  58782.000000  0   -6232862.413  -2869011.731   -630737.874
10 0 59311  58902.000000  0   -6177053.662  -2648267.086  -1523948.512
10 0 59311  59022.000000  0   -6009177.387  -2383254.724  -2390371.237
10 0 59311  59142.000000  0   -5731539.418  -2080577.864  -3214812.448
10 0 59311  59262.000000  0   -5348485.355  -1747433.980  -3982848.459
10 0 59311  59382.000000  0   -4866322.190  -1391449.512  -4681077.823
10 0 59311  59502.000000  0   -4293203.504  -1020509.920  -5297351.888
10 0 59311  59622.000000  0   -3638980.129   -642588.642  -5820979.474
10 0 59311  59742.000000  0   -2915021.350   -265579.514  -6242902.021
10 0 59311  59862.000000  0   -2134011.421    102863.963  -6555838.453
10 0 59311  59982.000000  0   -1309724.626    455478.939  -6754399.301
10 0 59311  60102.000000  0    -456783.929    785531.092  -6835169.094
10 0 59311  60222.000000  0     409593.110   1086939.691  -6796757.972
10 0 59311  60342.000000  0    1273857.938   1354385.632  -6639823.720
10 0 59311  60462.000000  0    2120404.286   1583403.567  -6367064.047
10 0 59311  60582.000000  0    2933844.653   1770456.070  -5983175.001
10 0 59311  60702.000000  0    3699286.233   1912987.770  -5494777.523
10 0 59311  60822.000000  0    4402601.273   2009459.409  -4910314.264
10 0 59311  60942.000000  0    5030690.867   2059361.914  -4239915.679
10 0 59311  61062.000000  0    5571734.938   2063208.891  -3495234.207
10 0 59311  61182.000000  0    6015422.738   2022507.545  -2689250.358
10 0 59311  61302.000000  0    6353160.802   1939708.841  -1836052.408
10 0 59311  61422.000000  0    6578250.905   1818137.432   -950590.627
10 0 59311  61542.000000  0    6686033.166   1661901.927    -48412.754
10 0 59311  61662.000000  0    6673989.337   1475787.651    854615.893
10 0 59311  61782.000000  0    6541803.138   1265135.559   1742597.700
10 0 59311  61902.000000  0    6291379.343   1035709.259   2599891.952
10 0 59311  62022.000000  0    5926815.082    793553.083   3411399.445
10 0 59311  62142.000000  0    5454328.002    544846.276   4162835.619
10 0 59311  62262.000000  0    4882140.761    295756.224   4840985.693
10 0 59311  62382.000000  0    4220329.514     52295.626   5433938.176
10 0 59311  62502.000000  0    3480635.729   -179815.400   5931293.419
99
